{
    "links": {
        "self": "http://www.neowsapp.com/rest/v1/neo/3582522?api_key=iIulBulltgU6a56xZRHN4H3l9WmuAYTsLGpBGhQ2"
    },
    "id": "3582522",
    "neo_reference_id": "3582522",
    "name": "(2011 UB64)",
    "designation": "2011 UB64",
    "nasa_jpl_url": "http://ssd.jpl.nasa.gov/sbdb.cgi?sstr=3582522",
    "absolute_magnitude_h": 25.0,
    "estimated_diameter": {
        "kilometers": {
            "estimated_diameter_min": 0.02658,
            "estimated_diameter_max": 0.0594346868
        },
        "meters": {
            "estimated_diameter_min": 26.58,
            "estimated_diameter_max": 59.4346868419
        },
        "miles": {
            "estimated_diameter_min": 0.0165160412,
            "estimated_diameter_max": 0.0369309908
        },
        "feet": {
            "estimated_diameter_min": 87.2047272,
            "estimated_diameter_max": 194.9956979785
        }
    },
    "is_potentially_hazardous_asteroid": false,
    "close_approach_data": [
        {
            "close_approach_date": "2011-10-10",
            "close_approach_date_full": "2011-Oct-10 23:25",
            "epoch_date_close_approach": 1318289100000,
            "relative_velocity": {
                "kilometers_per_second": "4.474402009",
                "kilometers_per_hour": "16107.8472323868",
                "miles_per_hour": "10008.7898539239"
            },
            "miss_distance": {
                "astronomical": "0.0503909601",
                "lunar": "19.6020834789",
                "kilometers": "7538380.298214987",
                "miles": "4684132.3112093406"
            },
            "orbiting_body": "Earth"
        },
        {
            "close_approach_date": "2092-11-10",
            "close_approach_date_full": "2092-Nov-10 19:02",
            "epoch_date_close_approach": 3877182120000,
            "relative_velocity": {
                "kilometers_per_second": "14.382794089",
                "kilometers_per_hour": "51778.0587204738",
                "miles_per_hour": "32172.87209773"
            },
            "miss_distance": {
                "astronomical": "0.3898165702",
                "lunar": "151.6386458078",
                "kilometers": "58315728.592625474",
                "miles": "36235713.4750965812"
            },
            "orbiting_body": "Earth"
        },
        {
            "close_approach_date": "2142-11-07",
            "close_approach_date_full": "2142-Nov-07 19:23",
            "epoch_date_close_approach": 5454674580000,
            "relative_velocity": {
                "kilometers_per_second": "11.7041167137",
                "kilometers_per_hour": "42134.8201692088",
                "miles_per_hour": "26180.9386768064"
            },
            "miss_distance": {
                "astronomical": "0.2977601994",
                "lunar": "115.8287175666",
                "kilometers": "44544291.601015278",
                "miles": "27678539.3299477164"
            },
            "orbiting_body": "Earth"
        },
        {
            "close_approach_date": "2149-08-24",
            "close_approach_date_full": "2149-Aug-24 15:19",
            "epoch_date_close_approach": 5669104740000,
            "relative_velocity": {
                "kilometers_per_second": "13.8492749161",
                "kilometers_per_hour": "49857.3896979611",
                "miles_per_hour": "30979.4430598248"
            },
            "miss_distance": {
                "astronomical": "0.3852243081",
                "lunar": "149.8522558509",
                "kilometers": "57628735.963983747",
                "miles": "35808836.0502278286"
            },
            "orbiting_body": "Earth"
        }
    ],
    "orbital_data": {
        "orbit_id": "8",
        "orbit_determination_date": "2017-04-06 08:52:18",
        "first_observation_date": "2011-10-22",
        "last_observation_date": "2011-11-02",
        "data_arc_in_days": 11,
        "observations_used": 40,
        "orbit_uncertainty": "8",
        "minimum_orbit_intersection": ".0503444",
        "jupiter_tisserand_invariant": "4.622",
        "epoch_osculation": "2455860.5",
        "eccentricity": ".2739290012541987",
        "semi_major_axis": "1.439246846454539",
        "inclination": "5.742830238846908",
        "ascending_node_longitude": "206.9152686583542",
        "orbital_period": "630.6688149095596",
        "perihelion_distance": "1.044995395246992",
        "perihelion_argument": "165.3639516673624",
        "aphelion_distance": "1.833498297662086",
        "perihelion_time": "2455840.764531563775",
        "mean_anomaly": "11.26545100864049",
        "mean_motion": ".5708225799172033",
        "equinox": "J2000",
        "orbit_class": {
            "orbit_class_type": "AMO",
            "orbit_class_description": "Near-Earth asteroid orbits similar to that of 1221 Amor",
            "orbit_class_range": "1.017 AU < q (perihelion) < 1.3 AU"
        }
    },
    "is_sentry_object": false
}